NORAD_CAT_ID,OBJECT_NAME,OBJECT_TYPE,EPOCH,MEAN_MOTION,ECCENTRICITY,INCLINATION,RA_OF_ASC_NODE,ARG_OF_PERICENTER,MEAN_ANOMALY,BSTAR,MEAN_MOTION_DOT,MEAN_MOTION_DDOT,TLE_LINE0,TLE_LINE1,TLE_LINE2,SEMIMAJOR_AXIS,PERIOD,APOGEE,PERIGEE,DECAYED
53927.0,STARLINK-5008,PAYLOAD,2024-03-26 19:16:33,15.08828287,0.0001451,53.2181,269.3875,83.8522,276.2636,-1.7274e-05,-5.63e-06,0.0,0 STARLINK-5008,1 53927U 22119AT  24086.80316433 -.00000563  00000-0 -17274-4 0  9990,2 53927  53.2181 269.3875 0001451  83.8522 276.2636 15.08828287 84279,6917.916,95.438,540.785,538.777,0.0
53927.0,STARLINK-5008,PAYLOAD,2024-03-27 04:48:51,15.08837967,0.000143,53.2183,267.6033,84.9377,275.1778,2.7721e-05,1.53e-06,0.0,0 STARLINK-5008,1 53927U 22119AT  24087.20059839  .00000153  00000-0  27721-4 0  9990,2 53927  53.2183 267.6033 0001430  84.9377 275.1778 15.08837967 83915,6917.887,95.438,540.741,538.762,0.0
53927.0,STARLINK-5008,PAYLOAD,2024-03-27 20:42:43,15.0883801,0.0001278,53.2171,264.6281,88.0969,272.017,5.5515e-05,5.96e-06,0.0,0 STARLINK-5008,1 53927U 22119AT  24087.86299948  .00000596  00000-0  55515-4 0  9992,2 53927  53.2171 264.6281 0001278  88.0969 272.0170 15.08838010 84436,6917.886,95.438,540.636,538.867,0.0
53927.0,STARLINK-5008,PAYLOAD,2024-03-28 04:39:38,15.08841695,0.0001316,53.2173,263.1418,86.9574,273.1569,8.5253e-06,-1.52e-06,0.0,0 STARLINK-5008,1 53927U 22119AT  24088.19419877 -.00000152  00000-0  85253-5 0  9996,2 53927  53.2173 263.1418 0001316  86.9574 273.1569 15.08841695 84488,6917.875,95.437,540.651,538.83,0.0
53927.0,STARLINK-5008,PAYLOAD,2024-03-28 20:33:30,15.08830378,0.0001361,53.2176,260.1682,84.891,275.2237,0.00010027,1.308e-05,0.0,0 STARLINK-5008,1 53927U 22119AT  24088.85660753  .00001308  00000-0  10027-3 0  9998,2 53927  53.2176 260.1682 0001361  84.8910 275.2237 15.08830378 84168,6917.91,95.438,540.716,538.833,0.0
53927.0,STARLINK-5008,PAYLOAD,2024-03-29 10:51:58,15.08832959,0.0001088,53.2167,257.4922,84.4902,275.6214,0.00013385,1.843e-05,0.0,0 STARLINK-5008,1 53927U 22119AT  24089.45276522  .00001843  00000-0  13385-3 0  9996,2 53927  53.2167 257.4922 0001088  84.4902 275.6214 15.08832959 84679,6917.902,95.438,540.52,539.014,0.0
53927.0,STARLINK-5008,PAYLOAD,2024-03-29 17:13:31,15.08837897,0.0001215,53.2176,256.3032,85.4135,274.6996,0.00011466,1.537e-05,0.0,0 STARLINK-5008,1 53927U 22119AT  24089.71772362  .00001537  00000-0  11466-3 0  9996,2 53927  53.2176 256.3032 0001215  85.4135 274.6996 15.08837897 84290,6917.887,95.438,540.592,538.911,0.0
53927.0,STARLINK-5008,PAYLOAD,2024-03-30 04:21:12,15.08848524,0.0001431,53.2178,254.2217,82.9606,277.1549,9.2347e-05,1.182e-05,0.0,0 STARLINK-5008,1 53927U 22119AT  24090.18139769  .00001182  00000-0  92347-4 0  9991,2 53927  53.2178 254.2217 0001431  82.9606 277.1549 15.08848524 84368,6917.854,95.437,540.709,538.729,0.0
53927.0,STARLINK-5008,PAYLOAD,2024-03-30 10:42:45,15.0884054,0.0002013,53.2129,253.0304,88.5338,271.5885,7.1493e-05,8.5e-06,0.0,0 STARLINK-5008,1 53927U 22119AT  24090.44636410  .00000850  00000-0  71493-4 0  9995,2 53927  53.2129 253.0304 0002013  88.5338 271.5885 15.08840540 84405,6917.879,95.438,541.136,538.351,0.0
53927.0,STARLINK-5008,PAYLOAD,2024-03-30 17:04:18,15.08839761,0.000206,53.2134,251.8404,90.4731,269.6497,5.6823e-05,6.16e-06,0.0,0 STARLINK-5008,1 53927U 22119AT  24090.71132472  .00000616  00000-0  56823-4 0  9994,2 53927  53.2134 251.8404 0002060  90.4731 269.6497 15.08839761 84869,6917.881,95.438,541.171,538.321,0.0
53927.0,STARLINK-5008,PAYLOAD,2024-03-31 13:44:19,15.0884166,0.0001896,53.214,247.973,102.0758,258.0446,2.513e-05,1.12e-06,0.0,0 STARLINK-5008,1 53927U 22119AT  24091.57244331  .00000112  00000-0  25130-4 0  9995,2 53927  53.2140 247.9730 0001896 102.0758 258.0446 15.08841660 84990,6917.875,95.437,541.052,538.429,0.0
53927.0,STARLINK-5008,PAYLOAD,2024-03-31 20:05:51,15.08844443,0.0001558,53.216,246.7847,94.6446,265.4724,4.5215e-05,4.32e-06,0.0,0 STARLINK-5008,1 53927U 22119AT  24091.83740083  .00000432  00000-0  45215-4 0  9990,2 53927  53.2160 246.7847 0001558  94.6446 265.4724 15.08844443 84615,6917.867,95.437,540.81,538.654,0.0
53927.0,STARLINK-5008,PAYLOAD,2024-04-01 10:24:20,15.08828993,0.0001176,53.2173,244.1068,103.8093,256.303,0.00012537,1.707e-05,0.0,0 STARLINK-5008,1 53927U 22119AT  24092.43356611  .00001707  00000-0  12537-3 0  9993,2 53927  53.2173 244.1068 0001176 103.8093 256.3030 15.08828993 84704,6917.914,95.438,540.593,538.965,0.0
53927.0,STARLINK-5008,PAYLOAD,2024-04-01 13:35:06,15.0882916,0.0001168,53.2171,243.5141,94.4032,265.7094,8.7293e-05,1.101e-05,0.0,0 STARLINK-5008,1 53927U 22119AT  24092.56604845  .00001101  00000-0  87293-4 0  9992,2 53927  53.2171 243.5141 0001168  94.4032 265.7094 15.08829160 85146,6917.914,95.438,540.587,538.971,0.0
53927.0,STARLINK-5008,PAYLOAD,2024-04-02 02:18:11,15.08843221,0.000135,53.2181,241.1366,93.9432,266.1714,6.6507e-05,7.71e-06,0.0,0 STARLINK-5008,1 53927U 22119AT  24093.09596084  .00000771  00000-0  66507-4 0  9993,2 53927  53.2181 241.1366 0001350  93.9432 266.1714 15.08843221 84801,6917.871,95.437,540.669,538.802,0.0
53927.0,STARLINK-5008,PAYLOAD,2024-04-02 10:15:07,15.08834439,0.000184,53.218,239.6513,104.078,256.0417,2.7924e-05,1.56e-06,0.0,0 STARLINK-5008,1 53927U 22119AT  24093.42717114  .00000156  00000-0  27924-4 0  9996,2 53927  53.2180 239.6513 0001840 104.0780 256.0417 15.08834439 84854,6917.897,95.438,541.035,538.489,0.0
53927.0,STARLINK-5008,PAYLOAD,2024-04-02 13:25:54,15.08829845,0.0001699,53.2184,239.057,106.2381,253.8798,-1.2657e-05,-4.89e-06,0.0,0 STARLINK-5008,1 53927U 22119AT  24093.55965386 -.00000489  00000-0 -12657-4 0  9994,2 53927  53.2184 239.0570 0001699 106.2381 253.8798 15.08829845 85299,6917.911,95.438,540.952,538.601,0.0
53927.0,STARLINK-5008,PAYLOAD,2024-04-02 16:36:40,15.08830224,0.0001515,53.2186,238.4639,100.5319,259.5844,7.9226e-06,-1.62e-06,0.0,0 STARLINK-5008,1 53927U 22119AT  24093.69213380 -.00000162  00000-0  79226-5 0  9992,2 53927  53.2186 238.4639 0001515 100.5319 259.5844 15.08830224 85316,6917.91,95.438,540.823,538.727,0.0
53927.0,STARLINK-5008,PAYLOAD,2024-04-03 13:16:41,15.08831252,0.0001612,53.2194,234.5979,115.455,244.6609,5.6098e-05,6.05e-06,0.0,0 STARLINK-5008,1 53927U 22119AT  24094.55325269  .00000605  00000-0  56098-4 0  9990,2 53927  53.2194 234.5979 0001612 115.4550 244.6609 15.08831252 85449,6917.907,95.438,540.887,538.657,0.0
53927.0,STARLINK-5008,PAYLOAD,2024-04-03 18:02:50,15.08832782,0.0001442,53.2186,233.705,109.7642,250.3506,7.08e-05,8.39e-06,0.0,0 STARLINK-5008,1 53927U 22119AT  24094.75197260  .00000839  00000-0  70800-4 0  9996,2 53927  53.2186 233.7050 0001442 109.7642 250.3506 15.08832782 85056,6917.902,95.438,540.765,538.77,0.0
53927.0,STARLINK-5008,PAYLOAD,2024-04-04 01:59:45,15.08846039,0.000138,53.2186,232.2176,100.2346,259.8802,6.6336e-05,7.68e-06,0.0,0 STARLINK-5008,1 53927U 22119AT  24095.08316424  .00000768  00000-0  66336-4 0  9998,2 53927  53.2186 232.2176 0001380 100.2346 259.8802 15.08846039 85106,6917.862,95.437,540.682,538.772,0.0
53927.0,STARLINK-5008,PAYLOAD,2024-04-04 13:07:28,15.0883098,0.0001633,53.2189,230.137,105.9621,254.1551,5.7426e-05,6.26e-06,0.0,0 STARLINK-5008,1 53927U 22119AT  24095.54685518  .00000626  00000-0  57426-4 0  9995,2 53927  53.2189 230.1370 0001633 105.9621 254.1551 15.08830980 85175,6917.908,95.438,540.903,538.643,0.0
53927.0,STARLINK-5008,PAYLOAD,2024-04-04 14:42:51,15.08832945,0.0001556,53.2188,229.8396,105.5785,254.5379,2.7217e-05,1.45e-06,0.0,0 STARLINK-5008,1 53927U 22119AT  24095.61309532  .00000145  00000-0  27217-4 0  9993,2 53927  53.2188 229.8396 0001556 105.5785 254.5379 15.08832945 85601,6917.902,95.438,540.843,538.691,0.0
53927.0,STARLINK-5008,PAYLOAD,2024-04-04 19:29:00,15.08838679,0.0001428,53.2185,228.9467,99.0361,261.0793,5.1181e-05,5.27e-06,0.0,0 STARLINK-5008,1 53927U 22119AT  24095.81181136  .00000527  00000-0  51181-4 0  9994,2 53927  53.2185 228.9467 0001428  99.0361 261.0793 15.08838679 85638,6917.884,95.438,540.737,538.762,0.0
53927.0,STARLINK-5008,PAYLOAD,2024-04-05 01:50:32,15.08843278,0.0001431,53.2182,227.7577,96.184,263.9315,5.0804e-05,5.21e-06,0.0,0 STARLINK-5008,1 53927U 22119AT  24096.07676836  .00000521  00000-0  50804-4 0  9994,2 53927  53.2182 227.7577 0001431  96.1840 263.9315 15.08843278 85258,6917.87,95.437,540.725,538.745,0.0
53927.0,STARLINK-5008,PAYLOAD,2024-04-05 14:33:37,15.08842181,0.0001453,53.2184,225.3774,89.9008,270.215,4.4154e-05,4.15e-06,0.0,0 STARLINK-5008,1 53927U 22119AT  24096.60668914  .00000415  00000-0  44154-4 0  9994,2 53927  53.2184 225.3774 0001453  89.9008 270.2150 15.08842181 85758,6917.874,95.437,540.744,538.734,0.0
53927.0,STARLINK-5008,PAYLOAD,2024-04-05 17:44:23,15.08844932,0.0001547,53.2174,224.7819,88.5143,271.6026,6.4463e-05,7.38e-06,0.0,0 STARLINK-5008,1 53927U 22119AT  24096.73916653  .00000738  00000-0  64463-4 0  9997,2 53927  53.2174 224.7819 0001547  88.5143 271.6026 15.08844932 85774,6917.865,95.437,540.801,538.66,0.0
53927.0,STARLINK-5008,PAYLOAD,2024-04-06 01:41:19,15.08851088,0.0001406,53.2173,223.2947,84.8249,275.2903,7.6758e-05,9.34e-06,0.0,0 STARLINK-5008,1 53927U 22119AT  24097.07035996  .00000934  00000-0  76758-4 0  9995,2 53927  53.2173 223.2947 0001406  84.8249 275.2903 15.08851088 85403,6917.846,95.437,540.684,538.739,0.0
53927.0,STARLINK-5008,PAYLOAD,2024-04-06 14:24:24,15.08844639,0.0002442,53.2191,220.9171,82.6246,277.5024,9.7121e-05,1.258e-05,0.0,0 STARLINK-5008,1 53927U 22119AT  24097.60028496  .00001258  00000-0  97121-4 0  9998,2 53927  53.2191 220.9171 0002442  82.6246 277.5024 15.08844639 85908,6917.866,95.437,541.421,538.042,0.0
53927.0,STARLINK-5008,PAYLOAD,2024-04-06 17:35:11,15.08835934,0.0001699,53.2186,220.322,83.0947,277.0238,-4.7551e-05,-1.045e-05,0.0,0 STARLINK-5008,1 53927U 22119AT  24097.73277420 -.00001045  00000-0 -47551-4 0  9993,2 53927  53.2186 220.3220 0001699  83.0947 277.0238 15.08835934 85503,6917.893,95.438,540.933,538.582,0.0
